[{"OBJECT_NAME":"STARLINK-2587","OBJECT_ID":"2021-038AY","EPOCH":"2026-03-09T21:22:22.853856","MEAN_MOTION":15.30202798,"ECCENTRICITY":0.00011629,"INCLINATION":53.1597,"RA_OF_ASC_NODE":331.6686,"ARG_OF_PERICENTER":88.6964,"MEAN_ANOMALY":271.417,"EPHEMERIS_TYPE":0,"CLASSIFICATION_TYPE":"U","NORAD_CAT_ID":48399,"ELEMENT_SET_NO":999,"REV_AT_EPOCH":26868,"BSTAR":0.00018401146,"MEAN_MOTION_DOT":5.095e-5,"MEAN_MOTION_DDOT":0},{"OBJECT_NAME":"YAOGAN-43 01G","OBJECT_ID":"2024-148G","EPOCH":"2026-03-09T10:38:37.087584","MEAN_MOTION":15.28332833,"ECCENTRICITY":0.00073829,"INCLINATION":35.0006,"RA_OF_ASC_NODE":62.0013,"ARG_OF_PERICENTER":306.3543,"MEAN_ANOMALY":53.6492,"EPHEMERIS_TYPE":0,"CLASSIFICATION_TYPE":"U","NORAD_CAT_ID":60464,"ELEMENT_SET_NO":999,"REV_AT_EPOCH":8700,"BSTAR":0.00035872736,"MEAN_MOTION_DOT":0.00010133,"MEAN_MOTION_DDOT":0}]
